{
  "type": "FeatureCollection",
  "features": [
    {
      "type": "Feature",
      "properties": {
        "norad_id": 36049,
        "name": "COSMOS 2251 DEB",
        "group": "cosmos-2251-debris",
        "lat": 73.30314569881197,
        "lon": -157.5884540585039,
        "alt_km": 678.1836573530436,
        "timestamp": "2025-12-25T07:41:10.120399+00:00",
        "meta_object_name": "COSMOS 2251 DEB",
        "meta_object_id": "1993-036AXL",
        "meta_epoch": "2025-12-24T16:28:33.256992",
        "meta_mean_motion": 14.62291602,
        "meta_eccentricity": 0.00099539,
        "meta_inclination": 74.0314,
        "meta_ra_of_asc_node": 96.2976,
        "meta_arg_of_pericenter": 184.7355,
        "meta_mean_anomaly": 175.3719,
        "meta_ephemeris_type": 0,
        "meta_classification_type": "U",
        "meta_norad_cat_id": 36049,
        "meta_element_set_no": 999,
        "meta_rev_at_epoch": 85539,
        "meta_bstar": 0.0013226671,
        "meta_mean_motion_dot": 6.656e-05,
        "meta_mean_motion_ddot": 0,
        "tle_line1": "1 36049U 93036AXL 25358.68649603  .00006656  00000+0  13227-2 0  9997",
        "tle_line2": "2 36049  74.0314  96.2976 0009953 184.7355 175.3719 14.62291602855397"
      },
      "geometry": {
        "type": "Point",
        "coordinates": [
          -157.5884540585039,
          73.30314569881197
        ]
      }
    },
    {
      "type": "Feature",
      "properties": {
        "norad_id": 36050,
        "name": "COSMOS 2251 DEB",
        "group": "cosmos-2251-debris",
        "lat": 51.496641162205556,
        "lon": -32.697673638002065,
        "alt_km": 587.9829697605574,
        "timestamp": "2025-12-25T07:41:10.120409+00:00",
        "meta_object_name": "COSMOS 2251 DEB",
        "meta_object_id": "1993-036AXM",
        "meta_epoch": "2025-12-23T18:20:06.375552",
        "meta_mean_motion": 15.01191833,
        "meta_eccentricity": 0.00883826,
        "meta_inclination": 74.0302,
        "meta_ra_of_asc_node": 171.57,
        "meta_arg_of_pericenter": 248.7055,
        "meta_mean_anomaly": 110.468,
        "meta_ephemeris_type": 0,
        "meta_classification_type": "U",
        "meta_norad_cat_id": 36050,
        "meta_element_set_no": 999,
        "meta_rev_at_epoch": 67200,
        "meta_bstar": 0.00066513085,
        "meta_mean_motion_dot": 9.246e-05,
        "meta_mean_motion_ddot": 0,
        "tle_line1": "1 36050U 93036AXM 25357.76396268  .00009246  00000+0  66513-3 0  9998",
        "tle_line2": "2 36050  74.0302 171.5700 0088382 248.7055 110.4680 15.01191833672000"
      },
      "geometry": {
        "type": "Point",
        "coordinates": [
          -32.697673638002065,
          51.496641162205556
        ]
      }
    },
    {
      "type": "Feature",
      "properties": {
        "norad_id": 36053,
        "name": "COSMOS 2251 DEB",
        "group": "cosmos-2251-debris",
        "lat": -27.6525948131115,
        "lon": -42.73463602709739,
        "alt_km": 723.5652163050363,
        "timestamp": "2025-12-25T07:41:10.120419+00:00",
        "meta_object_name": "COSMOS 2251 DEB",
        "meta_object_id": "1993-036AXQ",
        "meta_epoch": "2025-12-24T02:43:33.726720",
        "meta_mean_motion": 14.57309353,
        "meta_eccentricity": 0.00324773,
        "meta_inclination": 73.8708,
        "meta_ra_of_asc_node": 130.8593,
        "meta_arg_of_pericenter": 76.0407,
        "meta_mean_anomaly": 284.4365,
        "meta_ephemeris_type": 0,
        "meta_classification_type": "U",
        "meta_norad_cat_id": 36053,
        "meta_element_set_no": 999,
        "meta_rev_at_epoch": 87610,
        "meta_bstar": 0.0014302573,
        "meta_mean_motion_dot": 6.496e-05,
        "meta_mean_motion_ddot": 0,
        "tle_line1": "1 36053U 93036AXQ 25358.11358480  .00006496  00000+0  14303-2 0  9998",
        "tle_line2": "2 36053  73.8708 130.8593 0032477  76.0407 284.4365 14.57309353876102"
      },
      "geometry": {
        "type": "Point",
        "coordinates": [
          -42.73463602709739,
          -27.6525948131115
        ]
      }
    },
    {
      "type": "Feature",
      "properties": {
        "norad_id": 36058,
        "name": "COSMOS 2251 DEB",
        "group": "cosmos-2251-debris",
        "lat": 38.63722109711498,
        "lon": 22.72394606727754,
        "alt_km": 699.2285862477174,
        "timestamp": "2025-12-25T07:41:10.120429+00:00",
        "meta_object_name": "COSMOS 2251 DEB",
        "meta_object_id": "1993-036AXV",
        "meta_epoch": "2025-12-20T18:52:04.818432",
        "meta_mean_motion": 14.58726339,
        "meta_eccentricity": 0.00440828,
        "meta_inclination": 74.0229,
        "meta_ra_of_asc_node": 18.1226,
        "meta_arg_of_pericenter": 150.2394,
        "meta_mean_anomaly": 210.1292,
        "meta_ephemeris_type": 0,
        "meta_classification_type": "U",
        "meta_norad_cat_id": 36058,
        "meta_element_set_no": 999,
        "meta_rev_at_epoch": 66228,
        "meta_bstar": 0.0002931852,
        "meta_mean_motion_dot": 1.357e-05,
        "meta_mean_motion_ddot": 0,
        "tle_line1": "1 36058U 93036AXV 25354.78616688  .00001357  00000+0  29319-3 0  9994",
        "tle_line2": "2 36058  74.0229  18.1226 0044082 150.2394 210.1292 14.58726339662289"
      },
      "geometry": {
        "type": "Point",
        "coordinates": [
          22.72394606727754,
          38.63722109711498
        ]
      }
    },
    {
      "type": "Feature",
      "properties": {
        "norad_id": 36060,
        "name": "COSMOS 2251 DEB",
        "group": "cosmos-2251-debris",
        "lat": -73.86343920085815,
        "lon": 113.0942581603009,
        "alt_km": 750.131969455857,
        "timestamp": "2025-12-25T07:41:10.120439+00:00",
        "meta_object_name": "COSMOS 2251 DEB",
        "meta_object_id": "1993-036AXX",
        "meta_epoch": "2025-12-24T20:27:25.953408",
        "meta_mean_motion": 14.42023746,
        "meta_eccentricity": 0.0015617,
        "meta_inclination": 74.0276,
        "meta_ra_of_asc_node": 212.1036,
        "meta_arg_of_pericenter": 307.841,
        "meta_mean_anomaly": 52.1332,
        "meta_ephemeris_type": 0,
        "meta_classification_type": "U",
        "meta_norad_cat_id": 36060,
        "meta_element_set_no": 999,
        "meta_rev_at_epoch": 85184,
        "meta_bstar": 0.00026955178,
        "meta_mean_motion_dot": 8.59e-06,
        "meta_mean_motion_ddot": 0,
        "tle_line1": "1 36060U 93036AXX 25358.85238372  .00000859  00000+0  26955-3 0  9998",
        "tle_line2": "2 36060  74.0276 212.1036 0015617 307.8410  52.1332 14.42023746851846"
      },
      "geometry": {
        "type": "Point",
        "coordinates": [
          113.0942581603009,
          -73.86343920085815
        ]
      }
    },
    {
      "type": "Feature",
      "properties": {
        "norad_id": 36061,
        "name": "COSMOS 2251 DEB",
        "group": "cosmos-2251-debris",
        "lat": 67.59670730476608,
        "lon": 20.75418629341886,
        "alt_km": 746.6343414116118,
        "timestamp": "2025-12-25T07:41:10.120473+00:00",
        "meta_object_name": "COSMOS 2251 DEB",
        "meta_object_id": "1993-036AXY",
        "meta_epoch": "2025-12-23T15:09:10.673856",
        "meta_mean_motion": 14.33725339,
        "meta_eccentricity": 0.00369201,
        "meta_inclination": 74.0242,
        "meta_ra_of_asc_node": 339.8232,
        "meta_arg_of_pericenter": 64.3412,
        "meta_mean_anomaly": 296.1546,
        "meta_ephemeris_type": 0,
        "meta_classification_type": "U",
        "meta_norad_cat_id": 36061,
        "meta_element_set_no": 999,
        "meta_rev_at_epoch": 65260,
        "meta_bstar": 0.00028137212,
        "meta_mean_motion_dot": 7.61e-06,
        "meta_mean_motion_ddot": 0,
        "tle_line1": "1 36061U 93036AXY 25357.63137354  .00000761  00000+0  28137-3 0  9998",
        "tle_line2": "2 36061  74.0242 339.8232 0036920  64.3412 296.1546 14.33725339652609"
      },
      "geometry": {
        "type": "Point",
        "coordinates": [
          20.75418629341886,
          67.59670730476608
        ]
      }
    },
    {
      "type": "Feature",
      "properties": {
        "norad_id": 36073,
        "name": "COSMOS 2251 DEB",
        "group": "cosmos-2251-debris",
        "lat": -44.26519632970147,
        "lon": 135.70658123136488,
        "alt_km": 794.2397706113834,
        "timestamp": "2025-12-25T07:41:10.120484+00:00",
        "meta_object_name": "COSMOS 2251 DEB",
        "meta_object_id": "1993-036AYL",
        "meta_epoch": "2025-12-18T03:58:06.481920",
        "meta_mean_motion": 14.34959898,
        "meta_eccentricity": 0.00240895,
        "meta_inclination": 74.0326,
        "meta_ra_of_asc_node": 312.6126,
        "meta_arg_of_pericenter": 19.0207,
        "meta_mean_anomaly": 341.1839,
        "meta_ephemeris_type": 0,
        "meta_classification_type": "U",
        "meta_norad_cat_id": 36073,
        "meta_element_set_no": 999,
        "meta_rev_at_epoch": 70285,
        "meta_bstar": 0.0001893667,
        "meta_mean_motion_dot": 5.14e-06,
        "meta_mean_motion_ddot": 0,
        "tle_line1": "1 36073U 93036AYL 25352.16535280  .00000514  00000+0  18937-3 0  9997",
        "tle_line2": "2 36073  74.0326 312.6126 0024089  19.0207 341.1839 14.34959898702857"
      },
      "geometry": {
        "type": "Point",
        "coordinates": [
          135.70658123136488,
          -44.26519632970147
        ]
      }
    }
  ]
}